CAS-2T & KS-1Q          
1 41847U 16066G   20188.68890122  .00000066  00000-0  20123-4 0  9992
2 41847  98.6524 239.3996 0365936 171.4417 189.3247 14.38075606192183
NAYIF-1 (EO-88)         
1 42017U 17008BX  20188.88653223  .00001074  00000-0  43858-4 0  9990
2 42017  97.3590 256.1651 0004562 246.4596 113.6164 15.26543428188513
MAX VALIER SAT          
1 42778U 17036P   20188.79474313  .00000633  00000-0  30116-4 0  9999
2 42778  97.3035 241.8948 0010904 320.9705  39.0744 15.22649620168675
RADFXSAT (FOX-1B)       
1 43017U 17073E   20188.80679161  .00000488  00000-0  43555-4 0  9996
2 43017  97.7222 100.2954 0256689 347.6761  11.8247 14.78961550142025
FOX-1D (AO-92)          
1 43137U 18004AC  20189.17996032  .00000689  00000-0  31267-4 0  9994
2 43137  97.4450 260.2071 0008864 357.5195   2.5997 15.24155147138041
DIWATA-2B               
1 43678U 18084H   20189.39756199 -.00000308  00000-0 -24972-4 0  9999
2 43678  97.8867 307.8025 0011221 108.7054 251.5373 14.91634869 91997
ES'HAIL 2               
1 43700U 18090A   20188.86991788  .00000132  00000-0  00000-0 0  9993
2 43700   0.0179  37.0985 0001666  90.5310 136.6011  1.00271698  5908
FOX-1CLIFF (AO-95)      
1 43770U 18099N   20189.45412704 -.00000073  00000-0 -14467-5 0  9994
2 43770  97.7050 260.4859 0015826 127.2366 233.0301 14.95000122 86903
ITASAT 1                
1 43786U 18099AE  20189.44652740 -.00000257  00000-0 -18075-4 0  9998
2 43786  97.7067 260.9122 0016523 121.2868 238.9974 14.95338983 86923
JY1SAT (JO-97)          
1 43803U 18099AX  20189.45869101  .00000048  00000-0  94732-5 0  9991
2 43803  97.7024 260.7382 0016488 121.9216 238.3611 14.95515829 86924
PSAT2 (NO-104)          
1 44354U 19036R   20188.50710707  .00009134  00000-0  13144-3 0  9998
2 44354  28.5288 255.4549 0363543 154.4789 207.4235 15.03690913 56686
BRICSAT2 (NO-103)       
1 44355U 19036S   20188.84285153  .00016530  00000-0  22936-3 0  9995
2 44355  28.5289 243.5387 0341374 173.8427 186.6506 15.09258014 56832
JAISAT-1                
1 44419U 19038F   20188.53886447  .00000568  00000-0  35889-4 0  9993
2 44419  97.5396 149.9118 0023210  66.5997 293.7671 15.12805173 55486
DUCHIFAT-3              
1 44854U 19089C   20189.54341611  .00000197  00000-0  22350-4 0  9990
2 44854  36.9685 339.6261 0008506 236.9819 123.0119 14.99079403 31312
RS-44 & BREEZE-KM R/B   
1 44909U 19096E   20188.66970408  .00000003  00000-0 -34179-4 0  9992
2 44909  82.5220 342.5421 0217435 181.2962 178.7604 12.79708147 24644
ORBITAL FACTORY 2 (OF-2)
1 45113U 19071C   20188.64494555  .00001151  00000-0  46630-4 0  9994
2 45113  51.6442 270.8360 0013418 125.7370 234.4862 15.33410622 24075
HUSKYSAT-1              
1 45119U 19071J   20188.75098626  .00000896  00000-0  38634-4 0  9991
2 45119  51.6436 270.0450 0012720 122.6541 237.5670 15.33623237 24087
